start=new Date('2021-11-10T00:00:00.000Z').valueOf();
sats=[{"MEAN_ANOMALY":"271.8185","MEAN_MOTION":"15.06408301","FILE":"3210180","REF_FRAME":"TEME","TLE_LINE2":"2 48099  53.0566  68.8874 0001270  88.2950 271.8185 15.06408301 34120","OBJECT_TYPE":"PAYLOAD","PERIOD":"95.592","APOAPSIS":"548.068","MEAN_MOTION_DDOT":"0.0000000000000","ARG_OF_PERICENTER":"88.2950","DECAY_DATE":null,"GP_ID":"189362352","OBJECT_NAME":"STARLINK-2428","TIME_SYSTEM":"UTC","MEAN_ELEMENT_THEORY":"SGP4","PERIAPSIS":"546.309","RCS_SIZE":"LARGE","BSTAR":"0.00013978000000","EPHEMERIS_TYPE":"0","LAUNCH_DATE":"2021-04-07","TLE_LINE1":"1 48099U 21027H   21313.71297032  .00001802  00000-0  13978-3 0  9995","CENTER_NAME":"EARTH","EPOCH":"2021-11-09T17:06:40.635648","COUNTRY_CODE":"US","OBJECT_ID":"2021-027H","CLASSIFICATION_TYPE":"U","RA_OF_ASC_NODE":"68.8874","ELEMENT_SET_NO":"999","SITE":"AFETR","MEAN_MOTION_DOT":"0.00001802","INCLINATION":"53.0566","REV_AT_EPOCH":"3412","SEMIMAJOR_AXIS":"6925.323","ECCENTRICITY":"0.00012700","NORAD_CAT_ID":"48099"},{"TLE_LINE2":"2 48100  53.0566  48.7805 0001533  76.5870 283.5290 15.06422329 34412","OBJECT_TYPE":"PAYLOAD","PERIOD":"95.591","MEAN_MOTION":"15.06422329","MEAN_ANOMALY":"283.5290","FILE":"3210180","REF_FRAME":"TEME","ARG_OF_PERICENTER":"76.5870","DECAY_DATE":null,"APOAPSIS":"548.207","MEAN_MOTION_DDOT":"0.0000000000000","GP_ID":"189361100","PERIAPSIS":"546.083","MEAN_ELEMENT_THEORY":"SGP4","RCS_SIZE":"LARGE","OBJECT_NAME":"STARLINK-2430","TIME_SYSTEM":"UTC","LAUNCH_DATE":"2021-04-07","TLE_LINE1":"1 48100U 21027J   21313.74062868  .00006964  00000-0  48564-3 0  9991","CENTER_NAME":"EARTH","EPOCH":"2021-11-09T17:46:30.317952","BSTAR":"0.00048564000000","EPHEMERIS_TYPE":"0","ELEMENT_SET_NO":"999","COUNTRY_CODE":"US","OBJECT_ID":"2021-027J","CLASSIFICATION_TYPE":"U","RA_OF_ASC_NODE":"48.7805","MEAN_MOTION_DOT":"0.00006964","REV_AT_EPOCH":"3441","INCLINATION":"53.0566","SITE":"AFETR","SEMIMAJOR_AXIS":"6925.280","NORAD_CAT_ID":"48100","ECCENTRICITY":"0.00015330"},{"RCS_SIZE":"LARGE","PERIAPSIS":"546.336","MEAN_ELEMENT_THEORY":"SGP4","TIME_SYSTEM":"UTC","OBJECT_NAME":"STARLINK-2436","GP_ID":"189361350","DECAY_DATE":null,"ARG_OF_PERICENTER":"66.3910","APOAPSIS":"548.083","MEAN_MOTION_DDOT":"0.0000000000000","PERIOD":"95.592","OBJECT_TYPE":"PAYLOAD","TLE_LINE2":"2 48101  53.0579  58.5575 0001261  66.3910 293.7211 15.06401290 34285","REF_FRAME":"TEME","FILE":"3210180","MEAN_MOTION":"15.06401290","MEAN_ANOMALY":"293.7211","NORAD_CAT_ID":"48101","ECCENTRICITY":"0.00012610","SEMIMAJOR_AXIS":"6925.345","INCLINATION":"53.0579","REV_AT_EPOCH":"3428","MEAN_MOTION_DOT":"-0.00001963","SITE":"AFETR","ELEMENT_SET_NO":"999","RA_OF_ASC_NODE":"58.5575","CLASSIFICATION_TYPE":"U","OBJECT_ID":"2021-027K","COUNTRY_CODE":"US","EPOCH":"2021-11-09T18:58:06.757536","CENTER_NAME":"EARTH","TLE_LINE1":"1 48101U 21027K   21313.79035599 -.00001963  00000-0 -11289-3 0  9998","LAUNCH_DATE":"2021-04-07","EPHEMERIS_TYPE":"0","BSTAR":"-0.00011289000000"},{"SITE":"AFETR","MEAN_MOTION_DOT":"0.00005521","REV_AT_EPOCH":"3439","INCLINATION":"53.0518","SEMIMAJOR_AXIS":"6925.290","NORAD_CAT_ID":"48102","ECCENTRICITY":"0.00014960","EPHEMERIS_TYPE":"0","BSTAR":"0.00038905000000","TLE_LINE1":"1 48102U 21027L   21313.63373038  .00005521  00000-0  38905-3 0  9991","LAUNCH_DATE":"2021-04-07","CENTER_NAME":"EARTH","EPOCH":"2021-11-09T15:12:34.304832","COUNTRY_CODE":"US","OBJECT_ID":"2021-027L","CLASSIFICATION_TYPE":"U","RA_OF_ASC_NODE":"49.2551","ELEMENT_SET_NO":"999","GP_ID":"189361601","OBJECT_NAME":"STARLINK-2437","TIME_SYSTEM":"UTC","PERIAPSIS":"546.119","MEAN_ELEMENT_THEORY":"SGP4","RCS_SIZE":"LARGE","MEAN_MOTION":"15.06419097","MEAN_ANOMALY":"282.3728","FILE":"3210180","REF_FRAME":"TEME","TLE_LINE2":"2 48102  53.0518  49.2551 0001496  77.7428 282.3728 15.06419097 34393","OBJECT_TYPE":"PAYLOAD","PERIOD":"95.591","MEAN_MOTION_DDOT":"0.0000000000000","APOAPSIS":"548.191","ARG_OF_PERICENTER":"77.7428","DECAY_DATE":null},{"TIME_SYSTEM":"UTC","OBJECT_NAME":"STARLINK-2438","MEAN_ELEMENT_THEORY":"SGP4","PERIAPSIS":"546.181","RCS_SIZE":"MEDIUM","GP_ID":"189361852","APOAPSIS":"548.258","MEAN_MOTION_DDOT":"0.0000000000000","DECAY_DATE":null,"ARG_OF_PERICENTER":"62.9748","FILE":"3210180","REF_FRAME":"TEME","MEAN_ANOMALY":"297.1394","MEAN_MOTION":"15.06398109","OBJECT_TYPE":"PAYLOAD","PERIOD":"95.592","TLE_LINE2":"2 48103  53.0521  48.3308 0001500  62.9748 297.1394 15.06398109 34422","NORAD_CAT_ID":"48103","ECCENTRICITY":"0.00015000","SEMIMAJOR_AXIS":"6925.354","SITE":"AFETR","REV_AT_EPOCH":"3442","INCLINATION":"53.0521","MEAN_MOTION_DOT":"0.00001253","CLASSIFICATION_TYPE":"U","RA_OF_ASC_NODE":"48.3308","COUNTRY_CODE":"US","OBJECT_ID":"2021-027M","ELEMENT_SET_NO":"999","BSTAR":"0.00010302000000","EPHEMERIS_TYPE":"0","CENTER_NAME":"EARTH","EPOCH":"2021-11-09T20:09:49.992480","TLE_LINE1":"1 48103U 21027M   21313.84016195  .00001253  00000-0  10302-3 0  9992","LAUNCH_DATE":"2021-04-07"},{"OBJECT_TYPE":"PAYLOAD","PERIOD":"95.592","TLE_LINE2":"2 48104  53.0565  53.8687 0001327  69.4042 290.7089 15.06401438 34349","FILE":"3210180","REF_FRAME":"TEME","MEAN_ANOMALY":"290.7089","MEAN_MOTION":"15.06401438","DECAY_DATE":null,"ARG_OF_PERICENTER":"69.4042","MEAN_MOTION_DDOT":"0.0000000000000","APOAPSIS":"548.128","GP_ID":"189360600","PERIAPSIS":"546.290","MEAN_ELEMENT_THEORY":"SGP4","RCS_SIZE":"LARGE","TIME_SYSTEM":"UTC","OBJECT_NAME":"STARLINK-2439","CENTER_NAME":"EARTH","EPOCH":"2021-11-09T17:16:40.267200","TLE_LINE1":"1 48104U 21027N   21313.71991050  .00004802  00000-0  34104-3 0  9990","LAUNCH_DATE":"2021-04-07","BSTAR":"0.00034104000000","EPHEMERIS_TYPE":"0","ELEMENT_SET_NO":"999","CLASSIFICATION_TYPE":"U","RA_OF_ASC_NODE":"53.8687","COUNTRY_CODE":"US","OBJECT_ID":"2021-027N","REV_AT_EPOCH":"3434","INCLINATION":"53.0565","MEAN_MOTION_DOT":"0.00004802","SITE":"AFETR","NORAD_CAT_ID":"48104","ECCENTRICITY":"0.00013270","SEMIMAJOR_AXIS":"6925.344"},{"NORAD_CAT_ID":"48105","ECCENTRICITY":"0.00014310","SEMIMAJOR_AXIS":"6925.280","INCLINATION":"53.0524","REV_AT_EPOCH":"3506","MEAN_MOTION_DOT":"0.00002694","SITE":"AFETR","ELEMENT_SET_NO":"999","CLASSIFICATION_TYPE":"U","RA_OF_ASC_NODE":"0.1617","COUNTRY_CODE":"US","OBJECT_ID":"2021-027P","CENTER_NAME":"EARTH","EPOCH":"2021-11-09T10:16:40.300608","TLE_LINE1":"1 48105U 21027P   21313.42824422  .00002694  00000-0  19955-3 0  9991","LAUNCH_DATE":"2021-04-07","EPHEMERIS_TYPE":"0","BSTAR":"0.00019955000000","MEAN_ELEMENT_THEORY":"SGP4","PERIAPSIS":"546.154","RCS_SIZE":"LARGE","TIME_SYSTEM":"UTC","OBJECT_NAME":"STARLINK-2440","GP_ID":"189338602","DECAY_DATE":null,"ARG_OF_PERICENTER":"71.7177","MEAN_MOTION_DDOT":"0.0000000000000","APOAPSIS":"548.136","OBJECT_TYPE":"PAYLOAD","PERIOD":"95.591","TLE_LINE2":"2 48105  53.0524   0.1617 0001431  71.7177 288.3968 15.06422294 35066","FILE":"3210161","REF_FRAME":"TEME","MEAN_MOTION":"15.06422294","MEAN_ANOMALY":"288.3968"},{"GP_ID":"189338853","TIME_SYSTEM":"UTC","OBJECT_NAME":"STARLINK-2442","RCS_SIZE":"LARGE","PERIAPSIS":"546.172","MEAN_ELEMENT_THEORY":"SGP4","REF_FRAME":"TEME","FILE":"3210161","MEAN_ANOMALY":"291.9161","MEAN_MOTION":"15.06428893","PERIOD":"95.590","OBJECT_TYPE":"PAYLOAD","TLE_LINE2":"2 48106  53.0552  49.6454 0001376  68.1975 291.9161 15.06428893 34389","APOAPSIS":"548.078","MEAN_MOTION_DDOT":"0.0000000000000","DECAY_DATE":null,"ARG_OF_PERICENTER":"68.1975","SITE":"AFETR","REV_AT_EPOCH":"3438","INCLINATION":"53.0552","MEAN_MOTION_DOT":"0.00010696","NORAD_CAT_ID":"48106","ECCENTRICITY":"0.00013760","SEMIMAJOR_AXIS":"6925.260","EPHEMERIS_TYPE":"0","BSTAR":"0.00073531000000","EPOCH":"2021-11-09T13:03:49.736160","CENTER_NAME":"EARTH","TLE_LINE1":"1 48106U 21027Q   21313.54432565  .00010696  00000-0  73531-3 0  9999","LAUNCH_DATE":"2021-04-07","RA_OF_ASC_NODE":"49.6454","CLASSIFICATION_TYPE":"U","OBJECT_ID":"2021-027Q","COUNTRY_CODE":"US","ELEMENT_SET_NO":"999"},{"TIME_SYSTEM":"UTC","OBJECT_NAME":"STARLINK-2443","MEAN_ELEMENT_THEORY":"SGP4","PERIAPSIS":"546.321","RCS_SIZE":"LARGE","GP_ID":"189362353","APOAPSIS":"548.148","MEAN_MOTION_DDOT":"0.0000000000000","DECAY_DATE":null,"ARG_OF_PERICENTER":"77.7963","FILE":"3210180","REF_FRAME":"TEME","MEAN_ANOMALY":"282.3174","MEAN_MOTION":"15.06393172","OBJECT_TYPE":"PAYLOAD","PERIOD":"95.593","TLE_LINE2":"2 48107  53.0564  48.9782 0001319  77.7963 282.3174 15.06393172 34401","NORAD_CAT_ID":"48107","ECCENTRICITY":"0.00013190","SEMIMAJOR_AXIS":"6925.369","SITE":"AFETR","INCLINATION":"53.0564","REV_AT_EPOCH":"3440","MEAN_MOTION_DOT":"-0.00000095","CLASSIFICATION_TYPE":"U","RA_OF_ASC_NODE":"48.9782","COUNTRY_CODE":"US","OBJECT_ID":"2021-027R","ELEMENT_SET_NO":"999","EPHEMERIS_TYPE":"0","BSTAR":"0.00001251000000","CENTER_NAME":"EARTH","EPOCH":"2021-11-09T16:37:29.062272","TLE_LINE1":"1 48107U 21027R   21313.69269748 -.00000095  00000-0  12510-4 0  9991","LAUNCH_DATE":"2021-04-07"},{"SEMIMAJOR_AXIS":"6925.269","NORAD_CAT_ID":"48108","ECCENTRICITY":"0.00011930","MEAN_MOTION_DOT":"0.00005494","INCLINATION":"53.0578","REV_AT_EPOCH":"3426","SITE":"AFETR","ELEMENT_SET_NO":"999","OBJECT_ID":"2021-027S","COUNTRY_CODE":"US","RA_OF_ASC_NODE":"58.8185","CLASSIFICATION_TYPE":"U","LAUNCH_DATE":"2021-04-07","TLE_LINE1":"1 48108U 21027S   21313.73232964  .00005494  00000-0  38716-3 0  9999","EPOCH":"2021-11-09T17:34:33.280896","CENTER_NAME":"EARTH","BSTAR":"0.00038716000000","EPHEMERIS_TYPE":"0","RCS_SIZE":"LARGE","PERIAPSIS":"546.308","MEAN_ELEMENT_THEORY":"SGP4","OBJECT_NAME":"STARLINK-2444","TIME_SYSTEM":"UTC","GP_ID":"189361101","ARG_OF_PERICENTER":"75.6403","DECAY_DATE":null,"APOAPSIS":"547.960","MEAN_MOTION_DDOT":"0.0000000000000","TLE_LINE2":"2 48108  53.0578  58.8185 0001193  75.6403 284.4718 15.06425958 34269","PERIOD":"95.590","OBJECT_TYPE":"PAYLOAD","MEAN_MOTION":"15.06425958","MEAN_ANOMALY":"284.4718","REF_FRAME":"TEME","FILE":"3210180"}];
